0 SCOUT X-4 R/B
1 01815U 65101B   13282.44284490  .00001046  00000-0  15662-3 0  3177
2 01815 075.8514 191.0109 0006961 258.4330 101.6072 14.75386306403596
0 SCOUT X-4 R/B
1 01815U 65101B   13283.59562949  .00000970  00000-0  14551-3 0  3184
2 01815 075.8514 189.0080 0006923 255.6954 104.3461 14.75389020403767
0 SCOUT X-4 R/B
1 01815U 65101B   13285.83338039  .00000996  00000-0  14921-3 0  3206
2 01815 075.8512 185.1198 0006868 250.3684 109.6758 14.75392002404090
0 SCOUT X-4 R/B
1 01815U 65101B   13287.12177944  .00001121  00000-0  16762-3 0  3213
2 01815 075.8510 182.8812 0006860 247.3755 112.6703 14.75394581404281
0 SCOUT X-4 R/B
1 01815U 65101B   13288.13893520  .00001603  00000-0  23856-3 0  3228
2 01815 075.8508 181.1140 0006844 244.9114 115.1360 14.75399888404437
0 SCOUT X-4 R/B
1 01815U 65101B   13289.42732855  .00001087  00000-0  16268-3 0  3230
2 01815 075.8505 178.8753 0006821 242.0297 118.0197 14.75403865404625
0 SCOUT X-4 R/B
1 01815U 65101B   13290.44447820  .00001228  00000-0  18336-3 0  3245
2 01815 075.8503 177.1080 0006771 239.4205 120.6311 14.75406328404771
0 SCOUT X-4 R/B
1 01815U 65101B   13291.46162596  .00001188  00000-0  17742-3 0  3258
2 01815 075.8501 175.3405 0006745 237.1138 122.9397 14.75408948404927
0 SCOUT X-4 R/B
1 01815U 65101B   13292.47877167  .00001264  00000-0  18870-3 0  3266
2 01815 075.8501 173.5730 0006703 234.7083 125.3475 14.75411251405076
0 SCOUT X-4 R/B
1 01815U 65101B   13293.76715326  .00001406  00000-0  20957-3 0  3275
2 01815 075.8500 171.3342 0006691 231.8728 128.1853 14.75414343405267
0 SCOUT X-4 R/B
1 01815U 65101B   13294.78429546  .00001396  00000-0  20810-3 0  3281
2 01815 075.8499 169.5667 0006680 229.5188 130.5414 14.75417644405419
0 SCOUT X-4 R/B
1 01815U 65101B   13295.80143512  .00001420  00000-0  21154-3 0  3292
2 01815 075.8499 167.7991 0006658 227.2269 132.8356 14.75419711405562
